{
  "type": "FeatureCollection",
  "features": [
    {
      "type": "Feature",
      "properties": {
        "norad_id": 37846,
        "name": "GSAT0101 (GALILEO-PFM)",
        "group": "gnss",
        "lat": 0.1485742580240668,
        "lon": -13.337259466427675,
        "alt_km": 23215.039166621056,
        "timestamp": "2025-12-21T16:47:54.979943+00:00",
        "meta_object_name": "GSAT0101 (GALILEO-PFM)",
        "meta_object_id": "2011-060A",
        "meta_epoch": "2025-12-21T02:42:49.222080",
        "meta_mean_motion": 1.70475776,
        "meta_eccentricity": 0.000321,
        "meta_inclination": 57.0509,
        "meta_ra_of_asc_node": 346.5929,
        "meta_arg_of_pericenter": 319.8352,
        "meta_mean_anomaly": 40.1502,
        "meta_ephemeris_type": 0,
        "meta_classification_type": "U",
        "meta_norad_cat_id": 37846,
        "meta_element_set_no": 999,
        "meta_rev_at_epoch": 8808,
        "meta_bstar": 0,
        "meta_mean_motion_dot": -6.8e-07,
        "meta_mean_motion_ddot": 0,
        "tle_line1": "1 37846U 11060A   25355.11306970 -.00000068  00000+0  00000+0 0  9996",
        "tle_line2": "2 37846  57.0509 346.5929 0003210 319.8352  40.1502  1.70475776 88081"
      },
      "geometry": {
        "type": "Point",
        "coordinates": [
          -13.337259466427675,
          0.1485742580240668
        ]
      }
    },
    {
      "type": "Feature",
      "properties": {
        "norad_id": 37847,
        "name": "GSAT0102 (GALILEO-FM2)",
        "group": "gnss",
        "lat": 36.89727598142734,
        "lon": 15.706524781584786,
        "alt_km": 23218.263044872238,
        "timestamp": "2025-12-21T16:47:54.979955+00:00",
        "meta_object_name": "GSAT0102 (GALILEO-FM2)",
        "meta_object_id": "2011-060B",
        "meta_epoch": "2025-12-21T07:52:29.961120",
        "meta_mean_motion": 1.70476011,
        "meta_eccentricity": 0.0005151,
        "meta_inclination": 57.0515,
        "meta_ra_of_asc_node": 346.5875,
        "meta_arg_of_pericenter": 312.968,
        "meta_mean_anomaly": 224.4746,
        "meta_ephemeris_type": 0,
        "meta_classification_type": "U",
        "meta_norad_cat_id": 37847,
        "meta_element_set_no": 999,
        "meta_rev_at_epoch": 8809,
        "meta_bstar": 0,
        "meta_mean_motion_dot": -6.8e-07,
        "meta_mean_motion_ddot": 0,
        "tle_line1": "1 37847U 11060B   25355.32812455 -.00000068  00000+0  00000+0 0  9990",
        "tle_line2": "2 37847  57.0515 346.5875 0005151 312.9680 224.4746  1.70476011 88094"
      },
      "geometry": {
        "type": "Point",
        "coordinates": [
          15.706524781584786,
          36.89727598142734
        ]
      }
    },
    {
      "type": "Feature",
      "properties": {
        "norad_id": 37867,
        "name": "COSMOS 2476 (744)",
        "group": "gnss",
        "lat": 63.89823425707632,
        "lon": 149.5269277407632,
        "alt_km": 19178.16853918969,
        "timestamp": "2025-12-21T16:47:54.979967+00:00",
        "meta_object_name": "COSMOS 2476 (744)",
        "meta_object_id": "2011-064A",
        "meta_epoch": "2025-12-19T06:05:26.552256",
        "meta_mean_motion": 2.13103916,
        "meta_eccentricity": 0.0024321,
        "meta_inclination": 65.1662,
        "meta_ra_of_asc_node": 78.9509,
        "meta_arg_of_pericenter": 234.6548,
        "meta_mean_anomaly": 130.4776,
        "meta_ephemeris_type": 0,
        "meta_classification_type": "U",
        "meta_norad_cat_id": 37867,
        "meta_element_set_no": 999,
        "meta_rev_at_epoch": 10993,
        "meta_bstar": 0,
        "meta_mean_motion_dot": -3e-07,
        "meta_mean_motion_ddot": 0,
        "tle_line1": "1 37867U 11064A   25353.25377954 -.00000030  00000+0  00000+0 0  9995",
        "tle_line2": "2 37867  65.1662  78.9509 0024321 234.6548 130.4776  2.13103916109937"
      },
      "geometry": {
        "type": "Point",
        "coordinates": [
          149.5269277407632,
          63.89823425707632
        ]
      }
    },
    {
      "type": "Feature",
      "properties": {
        "norad_id": 37868,
        "name": "COSMOS 2477 (745)",
        "group": "gnss",
        "lat": -64.22726368645166,
        "lon": -27.882192159962287,
        "alt_km": 19087.67542566061,
        "timestamp": "2025-12-21T16:47:54.979979+00:00",
        "meta_object_name": "COSMOS 2477 (745)",
        "meta_object_id": "2011-064B",
        "meta_epoch": "2025-12-21T10:11:05.859168",
        "meta_mean_motion": 2.13103052,
        "meta_eccentricity": 0.0021519,
        "meta_inclination": 65.1732,
        "meta_ra_of_asc_node": 78.9552,
        "meta_arg_of_pericenter": 235.2861,
        "meta_mean_anomaly": 175.9616,
        "meta_ephemeris_type": 0,
        "meta_classification_type": "U",
        "meta_norad_cat_id": 37868,
        "meta_element_set_no": 999,
        "meta_rev_at_epoch": 10997,
        "meta_bstar": 0,
        "meta_mean_motion_dot": -9e-08,
        "meta_mean_motion_ddot": 0,
        "tle_line1": "1 37868U 11064B   25355.42437337 -.00000009  00000+0  00000+0 0  9995",
        "tle_line2": "2 37868  65.1732  78.9552 0021519 235.2861 175.9616  2.13103052109977"
      },
      "geometry": {
        "type": "Point",
        "coordinates": [
          -27.882192159962287,
          -64.22726368645166
        ]
      }
    },
    {
      "type": "Feature",
      "properties": {
        "norad_id": 37869,
        "name": "COSMOS 2475 (743)",
        "group": "gnss",
        "lat": -34.341083007882915,
        "lon": -82.62187700973044,
        "alt_km": 19075.940635793726,
        "timestamp": "2025-12-21T16:47:54.979991+00:00",
        "meta_object_name": "COSMOS 2475 (743)",
        "meta_object_id": "2011-064C",
        "meta_epoch": "2025-12-21T11:20:32.913888",
        "meta_mean_motion": 2.13101692,
        "meta_eccentricity": 0.002659,
        "meta_inclination": 65.1803,
        "meta_ra_of_asc_node": 78.9738,
        "meta_arg_of_pericenter": 248.9867,
        "meta_mean_anomaly": 155.1664,
        "meta_ephemeris_type": 0,
        "meta_classification_type": "U",
        "meta_norad_cat_id": 37869,
        "meta_element_set_no": 999,
        "meta_rev_at_epoch": 10998,
        "meta_bstar": 0,
        "meta_mean_motion_dot": -9e-08,
        "meta_mean_motion_ddot": 0,
        "tle_line1": "1 37869U 11064C   25355.47260317 -.00000009  00000+0  00000+0 0  9993",
        "tle_line2": "2 37869  65.1803  78.9738 0026590 248.9867 155.1664  2.13101692109986"
      },
      "geometry": {
        "type": "Point",
        "coordinates": [
          -82.62187700973044,
          -34.341083007882915
        ]
      }
    },
    {
      "type": "Feature",
      "properties": {
        "norad_id": 37948,
        "name": "BEIDOU-2 IGSO-5 (C10)",
        "group": "gnss",
        "lat": 13.936280497590761,
        "lon": 80.85264228932131,
        "alt_km": 35552.18648587941,
        "timestamp": "2025-12-21T16:47:54.980011+00:00",
        "meta_object_name": "BEIDOU-2 IGSO-5 (C10)",
        "meta_object_id": "2011-073A",
        "meta_epoch": "2025-12-20T17:45:23.966208",
        "meta_mean_motion": 1.00289634,
        "meta_eccentricity": 0.01098505,
        "meta_inclination": 48.0053,
        "meta_ra_of_asc_node": 273.7608,
        "meta_arg_of_pericenter": 222.3057,
        "meta_mean_anomaly": 313.2909,
        "meta_ephemeris_type": 0,
        "meta_classification_type": "U",
        "meta_norad_cat_id": 37948,
        "meta_element_set_no": 999,
        "meta_rev_at_epoch": 5134,
        "meta_bstar": 0,
        "meta_mean_motion_dot": -1.51e-06,
        "meta_mean_motion_ddot": 0,
        "tle_line1": "1 37948U 11073A   25354.73986072 -.00000151  00000+0  00000+0 0  9990",
        "tle_line2": "2 37948  48.0053 273.7608 0109850 222.3057 313.2909  1.00289634 51343"
      },
      "geometry": {
        "type": "Point",
        "coordinates": [
          80.85264228932131,
          13.936280497590761
        ]
      }
    },
    {
      "type": "Feature",
      "properties": {
        "norad_id": 37951,
        "name": "LUCH 5A (SDCM/PRN 140)",
        "group": "gnss",
        "lat": 7.958338788414869,
        "lon": 149.32910090031464,
        "alt_km": 35795.39543477343,
        "timestamp": "2025-12-21T16:47:54.980035+00:00",
        "meta_object_name": "LUCH 5A (SDCM/PRN 140)",
        "meta_object_id": "2011-074B",
        "meta_epoch": "2025-12-19T12:20:45.341088",
        "meta_mean_motion": 1.0026908,
        "meta_eccentricity": 0.0005087,
        "meta_inclination": 8.2961,
        "meta_ra_of_asc_node": 76.4843,
        "meta_arg_of_pericenter": 189.4736,
        "meta_mean_anomaly": 174.6688,
        "meta_ephemeris_type": 0,
        "meta_classification_type": "U",
        "meta_norad_cat_id": 37951,
        "meta_element_set_no": 999,
        "meta_rev_at_epoch": 5125,
        "meta_bstar": 0,
        "meta_mean_motion_dot": -3.2e-07,
        "meta_mean_motion_ddot": 0,
        "tle_line1": "1 37951U 11074B   25353.51441367 -.00000032  00000+0  00000+0 0  9991",
        "tle_line2": "2 37951   8.2961  76.4843 0005087 189.4736 174.6688  1.00269080 51252"
      },
      "geometry": {
        "type": "Point",
        "coordinates": [
          149.32910090031464,
          7.958338788414869
        ]
      }
    }
  ]
}